SITRO-AIS-16
1 61737U 24199C   25021.11241004  .00007962  00000-0  76202-3 0  9996
2 61737  97.3773 247.1752 0007577   6.8362 353.2961 14.93420892 55271
SITRO-AIS-15
1 61738U 24199D   25021.17547575  .00007299  00000-0  69792-3 0  9994
2 61738  97.3772 247.2429 0007319   7.4949 352.6380 14.93484892 55284
SITRO-AIS-21
1 61739U 24199E   25021.11992457  .00006444  00000-0  64060-3 0  9996
2 61739  97.3770 247.0175 0013500 351.3947   8.7039 14.91932842 55301
SITRO-AIS-22
1 61740U 24199F   25021.11918192  .00006936  00000-0  68859-3 0  9998
2 61740  97.3774 247.0213 0013634 352.6520   7.4498 14.91960658 55456
SITRO-AIS-24
1 61741U 24199G   25021.11773092  .00006824  00000-0  67751-3 0  9993
2 61741  97.3774 247.0240 0013575 354.2050   5.9011 14.91961138 55422
SITRO-AIS-23
1 61742U 24199H   25021.11656548  .00007098  00000-0  70372-3 0  9997
2 61742  97.3774 247.0247 0013480 353.8806   6.2247 14.92005582 55304
SITRO-AIS-13
1 61743U 24199J   25021.16981240  .00008312  00000-0  79136-3 0  9990
2 61743  97.3769 247.2504 0007156   8.8689 351.2657 14.93619239 55440
CSTP-2.11
1 61744U 24199K   25021.16306890  .00026331  00000-0  97818-3 0  9991
2 61744  97.3790 251.0026 0013096 325.1144  34.9235 15.27448769 55632
POLYTECH UNIVERSE-5 (RS70S)
1 61745U 24199L   25021.15335489  .00028804  00000-0  10566-2 0  9998
2 61745  97.3760 250.9855 0011044 335.5843  24.4872 15.27870145 58776
COLIBRI-S (RS67S)
1 61746U 24199M   25021.17383856  .00023350  00000-0  87776-3 0  9991
2 61746  97.3786 250.9840 0013115 326.2148  33.8254 15.27081376 58773
POLYTECH UNIVERSE-4 (RS71S)
1 61747U 24199N   25021.17452582  .00022099  00000-0  83427-3 0  9993
2 61747  97.3784 250.9818 0012988 324.2754  35.7615 15.26953563 58772
SITRO-AIS-44
1 61748U 24199P   25021.14479996  .00030509  00000-0  11087-2 0  9996
2 61748  97.3759 250.9965 0011015 335.4659  24.6056 15.28167692 58774
VIZARD-ION (RS68S)
1 61749U 24199Q   25021.15660903  .00026682  00000-0  98520-3 0  9993
2 61749  97.3788 251.0087 0012699 324.5991  35.4404 15.27651091 58778
MTUSI-1
1 61750U 24199R   25021.12346023  .00027035  00000-0  10184-2 0  9998
2 61750  97.3760 250.8745 0013508 336.5323  23.5297 15.26977891 58765
VLADIVOSTOK-1
1 61751U 24199S   25021.14519515  .00015039  00000-0  58856-3 0  9999
2 61751  97.3762 250.8472 0012054 336.1921  23.8759 15.25848534 58777
SITRO-AIS-14
1 61752U 24199T   25021.17279796  .00007851  00000-0  74940-3 0  9992
2 61752  97.3771 247.2461 0007200   8.4849 351.6493 14.93533225 58589
HORS-3 (RS81S)
1 61753U 24199U   25021.10801852  .00028124  00000-0  10488-2 0  9992
2 61753  97.3758 250.8935 0011873 335.4698  24.5975 15.27322546 58768
HORS-4 (RS82S)
1 61754U 24199V   25021.16357058  .00029238  00000-0  10788-2 0  9993
2 61754  97.3757 250.9703 0012009 335.8538  24.2136 15.27664096 58777
SITRO-AIS-43
1 61755U 24199W   25021.14265580  .00030468  00000-0  11055-2 0  9995
2 61755  97.3757 250.9990 0010904 335.1937  24.8777 15.28219790 58779
SITRO-AIS-42
1 61756U 24199X   25021.14179692  .00030596  00000-0  11095-2 0  9990
2 61756  97.3758 251.0003 0011004 335.4664  24.6051 15.28237043 58774
HORIZON (RS59S)
1 61757U 24199Y   25021.13871089  .00035778  00000-0  12838-2 0  9992
2 61757  97.3782 251.0288 0012823 324.9457  35.0938 15.28528406 58776
SITRO-AIS-20
1 61758U 24199Z   25021.16624627  .00008257  00000-0  78480-3 0  9998
2 61758  97.3766 247.2521 0007011  10.6662 349.4706 14.93686675 58584
SITRO-AIS-19
1 61759U 24199AA  25021.16458912  .00007906  00000-0  75127-3 0  9996
2 61759  97.3766 247.2548 0006937  12.4586 347.6805 14.93708302 58587
SITRO-AIS-41
1 61760U 24199AB  25021.14391563  .00029822  00000-0  10849-2 0  9994
2 61760  97.3760 250.9983 0010812 336.3723  23.7018 15.28138572 58779
2024-199AC
1 61761U 24199AC  25021.14899577  .00027167  00000-0  99786-3 0  9991
2 61761  97.3758 250.9902 0010637 337.2020  22.8745 15.27844031 58773
ARCTICSAT-1 (RS74S)
1 61762U 24199AD  25021.12710060  .00034559  00000-0  12322-2 0  9992
2 61762  97.3780 251.0427 0012672 323.1181  36.9186 15.28747227 58771
SIT-HSE
1 61763U 24199AE  25021.20401039  .00029192  00000-0  10583-2 0  9999
2 61763  97.3759 251.0699 0010568 336.1703  23.9046 15.28259686 58784
SIT-2086
1 61764U 24199AF  25021.19933659  .00028825  00000-0  10426-2 0  9994
2 61764  97.3759 251.0762 0010328 337.1248  22.9530 15.28341107 55622
MORDOVIA-IOT (RS50S)
1 61765U 24199AG  25021.22868856  .00043501  00000-0  14971-2 0  9992
2 61765  97.3782 251.2128 0012422 321.8981  38.1380 15.29852835 55648
RUZAEVKA-390 (RS44S)
1 61766U 24199AH  25021.16907931  .00040464  00000-0  14068-2 0  9996
2 61766  97.3781 251.1373 0012263 321.5065  38.5300 15.29541057 55638
2024-199AJ (? AHMAT-2)
1 61767U 24199AJ  25021.20946617  .00041805  00000-0  14139-2 0  9995
2 61767  97.3769 251.2290 0012008 319.9481  40.0874 15.30432547 55644
HOD-HOD
1 61768U 24199AK  25021.13580776  .00024151  00000-0  88760-3 0  9995
2 61768  97.3765 251.0163 0008745 343.6264  16.4692 15.27866049 55621
KOSAR
1 61769U 24199AL  25021.12527702  .00023985  00000-0  87308-3 0  9996
2 61769  97.3761 251.0260 0008657 344.7999  15.2979 15.28184155 55622
2024-199AM
1 61770U 24199AM  25021.22861835  .00226234  00000-0  46805-2 0  9995
2 61770  97.3564 251.7651 0014413 340.0234  20.0448 15.44835258 55691
SITRO-AIS-48
1 61771U 24199AN  25021.20573485  .00025719  00000-0  97510-3 0  9990
2 61771  97.3732 250.8897 0014578 344.1744  15.9037 15.26759248 55628
HYPERVIEW-1G (RS66S)
1 61772U 24199AP  25021.19376522  .00030995  00000-0  11538-2 0  9999
2 61772  97.3754 250.9294 0016015 336.2256  23.8241 15.27306144 55622
SITRO-AIS-47
1 61773U 24199AQ  25021.14140154  .00028035  00000-0  10623-2 0  9991
2 61773  97.3734 250.8253 0014684 344.6938  15.3854 15.26758882 55619
SITRO-AIS-46
1 61774U 24199AR  25021.14034340  .00029276  00000-0  11061-2 0  9996
2 61774  97.3731 250.8253 0014883 344.5004  15.5778 15.26844069 55611
CSTP-2.2
1 61775U 24199AS  25021.17406408  .00019067  00000-0  75281-3 0  9990
2 61775  97.3764 250.8099 0016158 336.7150  23.3355 15.25449228 55613
SITRO-AIS-40
1 61776U 24199AT  25021.20766820  .00028083  00000-0  10619-2 0  9993
2 61776  97.3732 250.8895 0015037 344.6159  15.4620 15.26823026 58775
CSTP-2.1
1 61777U 24199AU  25021.17424756  .00018103  00000-0  71401-3 0  9998
2 61777  97.3760 250.8097 0016226 337.3102  22.7417 15.25493916 55614
SITRO-AIS-39
1 61778U 24199AV  25021.14887432  .00026334  00000-0  10032-2 0  9997
2 61778  97.3733 250.8151 0015042 345.5084  14.5721 15.26589857 55619
ALTAIR (RS65S)
1 61779U 24199AW  25021.18028351  .00017019  00000-0  67715-3 0  9990
2 61779  97.3764 250.8028 0016443 336.6519  23.3971 15.25210787 58763
SITRO-AIS-37
1 61780U 24199AX  25021.15040407  .00028335  00000-0  10788-2 0  9995
2 61780  97.3742 250.8214 0015385 345.1071  14.9712 15.26588832 55610
ASRTU-1 (RS64S/BJ2CR)
1 61781U 24199AY  25021.12414897  .00017022  00000-0  68077-3 0  9997
2 61781  97.3763 250.7253 0016652 337.1177  22.9317 15.25034438 55608
TUSUR GO (RS78S)
1 61782U 24199AZ  25021.14574841  .00038133  00000-0  14299-2 0  9998
2 61782  97.3754 250.8441 0017137 335.9654  24.0783 15.27002189 55615
ZIMSAT-2 (Z2AS)
1 61783U 24199BA  25021.18450747  .00043574  00000-0  15742-2 0  9990
2 61783  97.3752 250.9389 0017708 335.3924  24.6469 15.28188684 58777
SAMSAT-IONOSPHERE (RS75S)
1 61784U 24199BB  25021.22130646  .00027524  00000-0  10507-2 0  9990
2 61784  97.3760 250.8957 0016926 336.1692  23.8761 15.26483872 58770
RTU MIREA-1 (RS51S)
1 61785U 24199BC  25021.21869452  .00028271  00000-0  10756-2 0  9990
2 61785  97.3759 250.8994 0016790 335.6925  24.3520 15.26591847 55624
SITRO-AIS-38
1 61786U 24199BD  25021.15260471  .00028763  00000-0  10969-2 0  9992
2 61786  97.3737 250.8134 0015340 346.1973  13.8844 15.26531588 55614
2024-199BE (? SWSU-60)
1 61787U 24199BE  25021.19082628  .00015656  00000-0  62802-3 0  9994
2 61787  97.3763 250.7875 0016810 336.5696  23.4774 15.24949872 58768
SITRO-AIS-45
1 61788U 24199BF  25021.14547394  .00029267  00000-0  11123-2 0  9998
2 61788  97.3728 250.8147 0014964 345.0579  15.0216 15.26647286 55598
SITRO-AIS-17
1 61789U 24199BG  25021.23033746  .00007149  00000-0  67952-3 0  9997
2 61789  97.3769 247.3235 0007204  15.1923 344.9513 14.93731535 55497
SITRO-AIS-18
1 61790U 24199BH  25021.16406828  .00007853  00000-0  74629-3 0  9997
2 61790  97.3766 247.2558 0007029  13.7652 346.3759 14.93710402 55488
LIGNOSAT
1 62296U 98067XC  25020.85227922  .00142165  00000-0  16758-2 0  9999
2 62296  51.6357 315.2832 0014481 123.2175 237.0208 15.60268396  6618
YOMOGI
1 62298U 98067XE  25021.17137629  .00157626  00000-0  18359-2 0  9998
2 62298  51.6345 313.6628 0014576 125.6367 234.5986 15.60521332  6668
POEM-4
1 62461U 24253C   25020.88019689  .00127484  00000-0  81119-3 0  9992
2 62461  55.2214 154.3447 0006484 336.8866  23.1888 15.75606489  3330
PLEIADES-ORPHEUS
1 98724C 24248D   24356.55167141  .00080857  00000+0  38463-2 0    06
2 98724  44.9996   0.5278 0003834  18.1359 115.7653 15.18415623    15
CROCUBE
1 98799U          24356.55243530  .00075084  00000+0  37160-2 0    04
2 98799  45.0011   0.5205 0005283 101.7631  36.3233 15.17035563    11
LASARSAT
1 98797U          24356.55243530  .00075084  00000+0  37160-2 0    02
2 98797  45.0011   0.5205 0005283 101.7631  36.3233 15.17035563    19
